{
  "type": "FeatureCollection",
  "features": [
    {
      "type": "Feature",
      "properties": {
        "norad_id": 43719,
        "name": "HYSIS",
        "group": "resource",
        "lat": 47.626492436680216,
        "lon": 45.061803738443764,
        "alt_km": 628.4809971452569,
        "timestamp": "2025-12-16T23:36:35.842641+00:00",
        "meta_object_name": "HYSIS",
        "meta_object_id": "2018-096A",
        "meta_epoch": "2025-12-16T07:09:06.375744",
        "meta_mean_motion": 14.7865802,
        "meta_eccentricity": 0.00012212,
        "meta_inclination": 98.0098,
        "meta_ra_of_asc_node": 53.2585,
        "meta_arg_of_pericenter": 54.4923,
        "meta_mean_anomaly": 305.6401,
        "meta_ephemeris_type": 0,
        "meta_classification_type": "U",
        "meta_norad_cat_id": 43719,
        "meta_element_set_no": 999,
        "meta_rev_at_epoch": 38039,
        "meta_bstar": 0.0001953983,
        "meta_mean_motion_dot": 1.38e-05,
        "meta_mean_motion_ddot": 0,
        "tle_line1": "1 43719U 18096A   25350.29799046  .00001380  00000+0  19540-3 0  9992",
        "tle_line2": "2 43719  98.0098  53.2585 0001221  54.4923 305.6401 14.78658020380394"
      },
      "geometry": {
        "type": "Point",
        "coordinates": [
          45.061803738443764,
          47.626492436680216
        ]
      }
    },
    {
      "type": "Feature",
      "properties": {
        "norad_id": 43783,
        "name": "KAZSTSAT",
        "group": "resource",
        "lat": -59.35686617906948,
        "lon": -166.78257209171446,
        "alt_km": 574.7805021946533,
        "timestamp": "2025-12-16T23:36:35.842652+00:00",
        "meta_object_name": "KAZSTSAT",
        "meta_object_id": "2018-099AB",
        "meta_epoch": "2025-12-16T01:43:10.999776",
        "meta_mean_motion": 14.99359159,
        "meta_eccentricity": 0.0005914,
        "meta_inclination": 97.4547,
        "meta_ra_of_asc_node": 25.1137,
        "meta_arg_of_pericenter": 315.5688,
        "meta_mean_anomaly": 44.5061,
        "meta_ephemeris_type": 0,
        "meta_classification_type": "U",
        "meta_norad_cat_id": 43783,
        "meta_element_set_no": 999,
        "meta_rev_at_epoch": 38386,
        "meta_bstar": 6.9162163e-05,
        "meta_mean_motion_dot": 7.9e-06,
        "meta_mean_motion_ddot": 0,
        "tle_line1": "1 43783U 18099AB  25350.07165509  .00000790  00000+0  69162-4 0  9993",
        "tle_line2": "2 43783  97.4547  25.1137 0005914 315.5688  44.5061 14.99359159383860"
      },
      "geometry": {
        "type": "Point",
        "coordinates": [
          -166.78257209171446,
          -59.35686617906948
        ]
      }
    },
    {
      "type": "Feature",
      "properties": {
        "norad_id": 43831,
        "name": "SAUDISAT 5A",
        "group": "resource",
        "lat": -25.49548589574868,
        "lon": 54.61526703607781,
        "alt_km": 494.171963097202,
        "timestamp": "2025-12-16T23:36:35.842662+00:00",
        "meta_object_name": "SAUDISAT 5A",
        "meta_object_id": "2018-102A",
        "meta_epoch": "2025-12-16T07:58:54.674400",
        "meta_mean_motion": 15.25703097,
        "meta_eccentricity": 0.00116307,
        "meta_inclination": 97.3355,
        "meta_ra_of_asc_node": 50.4545,
        "meta_arg_of_pericenter": 65.2444,
        "meta_mean_anomaly": 295.0004,
        "meta_ephemeris_type": 0,
        "meta_classification_type": "U",
        "meta_norad_cat_id": 43831,
        "meta_element_set_no": 999,
        "meta_rev_at_epoch": 38777,
        "meta_bstar": 0.00019368437,
        "meta_mean_motion_dot": 4.873e-05,
        "meta_mean_motion_ddot": 0,
        "tle_line1": "1 43831U 18102A   25350.33257725  .00004873  00000+0  19368-3 0  9991",
        "tle_line2": "2 43831  97.3355  50.4545 0011630  65.2444 295.0004 15.25703097387773"
      },
      "geometry": {
        "type": "Point",
        "coordinates": [
          54.61526703607781,
          -25.49548589574868
        ]
      }
    },
    {
      "type": "Feature",
      "properties": {
        "norad_id": 43833,
        "name": "SAUDISAT 5B",
        "group": "resource",
        "lat": 31.660855778339503,
        "lon": 49.2769017272035,
        "alt_km": 478.78847040344135,
        "timestamp": "2025-12-16T23:36:35.842672+00:00",
        "meta_object_name": "SAUDISAT 5B",
        "meta_object_id": "2018-102C",
        "meta_epoch": "2025-12-16T07:44:01.265568",
        "meta_mean_motion": 15.26053581,
        "meta_eccentricity": 0.00123474,
        "meta_inclination": 97.345,
        "meta_ra_of_asc_node": 53.1893,
        "meta_arg_of_pericenter": 67.475,
        "meta_mean_anomaly": 292.7794,
        "meta_ephemeris_type": 0,
        "meta_classification_type": "U",
        "meta_norad_cat_id": 43833,
        "meta_element_set_no": 999,
        "meta_rev_at_epoch": 38788,
        "meta_bstar": 0.00018673781,
        "meta_mean_motion_dot": 4.746e-05,
        "meta_mean_motion_ddot": 0,
        "tle_line1": "1 43833U 18102C   25350.32223687  .00004746  00000+0  18674-3 0  9990",
        "tle_line2": "2 43833  97.3450  53.1893 0012347  67.4750 292.7794 15.26053581387886"
      },
      "geometry": {
        "type": "Point",
        "coordinates": [
          49.2769017272035,
          31.660855778339503
        ]
      }
    },
    {
      "type": "Feature",
      "properties": {
        "norad_id": 44622,
        "name": "GAOFEN-10R",
        "group": "resource",
        "lat": 35.49659695146833,
        "lon": -67.27065015695734,
        "alt_km": 612.7801052047034,
        "timestamp": "2025-12-16T23:36:35.842683+00:00",
        "meta_object_name": "GAOFEN-10R",
        "meta_object_id": "2019-066A",
        "meta_epoch": "2025-12-16T08:52:22.709856",
        "meta_mean_motion": 14.8280489,
        "meta_eccentricity": 0.00076455,
        "meta_inclination": 98.0282,
        "meta_ra_of_asc_node": 297.8901,
        "meta_arg_of_pericenter": 31.4355,
        "meta_mean_anomaly": 328.7314,
        "meta_ephemeris_type": 0,
        "meta_classification_type": "U",
        "meta_norad_cat_id": 44622,
        "meta_element_set_no": 999,
        "meta_rev_at_epoch": 33528,
        "meta_bstar": 0.00019518851,
        "meta_mean_motion_dot": 1.525e-05,
        "meta_mean_motion_ddot": 0,
        "tle_line1": "1 44622U 19066A   25350.36970729  .00001525  00000+0  19519-3 0  9998",
        "tle_line2": "2 44622  98.0282 297.8901 0007645  31.4355 328.7314 14.82804890335281"
      },
      "geometry": {
        "type": "Point",
        "coordinates": [
          -67.27065015695734,
          35.49659695146833
        ]
      }
    },
    {
      "type": "Feature",
      "properties": {
        "norad_id": 44804,
        "name": "CARTOSAT-3",
        "group": "resource",
        "lat": 33.52585123589934,
        "lon": 45.53451523136077,
        "alt_km": 498.4320381629241,
        "timestamp": "2025-12-16T23:36:35.842693+00:00",
        "meta_object_name": "CARTOSAT-3",
        "meta_object_id": "2019-081A",
        "meta_epoch": "2025-12-16T07:39:13.264992",
        "meta_mean_motion": 15.19183938,
        "meta_eccentricity": 0.00139923,
        "meta_inclination": 97.4584,
        "meta_ra_of_asc_node": 49.8574,
        "meta_arg_of_pericenter": 71.886,
        "meta_mean_anomaly": 288.3897,
        "meta_ephemeris_type": 0,
        "meta_classification_type": "U",
        "meta_norad_cat_id": 44804,
        "meta_element_set_no": 999,
        "meta_rev_at_epoch": 33570,
        "meta_bstar": 0.00019948824,
        "meta_mean_motion_dot": 4.138e-05,
        "meta_mean_motion_ddot": 0,
        "tle_line1": "1 44804U 19081A   25350.31890353  .00004138  00000+0  19949-3 0  9996",
        "tle_line2": "2 44804  97.4584  49.8574 0013992  71.8860 288.3897 15.19183938335701"
      },
      "geometry": {
        "type": "Point",
        "coordinates": [
          45.53451523136077,
          33.52585123589934
        ]
      }
    },
    {
      "type": "Feature",
      "properties": {
        "norad_id": 44819,
        "name": "GAOFEN-12 01",
        "group": "resource",
        "lat": -82.17704790173373,
        "lon": 85.04028038875877,
        "alt_km": 634.0447220757633,
        "timestamp": "2025-12-16T23:36:35.842703+00:00",
        "meta_object_name": "GAOFEN-12 01",
        "meta_object_id": "2019-082A",
        "meta_epoch": "2025-12-16T07:47:44.988000",
        "meta_mean_motion": 14.80661725,
        "meta_eccentricity": 0.00015234,
        "meta_inclination": 97.8125,
        "meta_ra_of_asc_node": 356.5118,
        "meta_arg_of_pericenter": 213.3927,
        "meta_mean_anomaly": 146.719,
        "meta_ephemeris_type": 0,
        "meta_classification_type": "U",
        "meta_norad_cat_id": 44819,
        "meta_element_set_no": 999,
        "meta_rev_at_epoch": 32703,
        "meta_bstar": 7.1804966e-05,
        "meta_mean_motion_dot": 5.01e-06,
        "meta_mean_motion_ddot": 0,
        "tle_line1": "1 44819U 19082A   25350.32482625  .00000501  00000+0  71805-4 0  9993",
        "tle_line2": "2 44819  97.8125 356.5118 0001523 213.3927 146.7190 14.80661725327030"
      },
      "geometry": {
        "type": "Point",
        "coordinates": [
          85.04028038875877,
          -82.17704790173373
        ]
      }
    }
  ]
}